
# Worst residual: 89.64 km
# MJD 60628.000000 (2024 Nov 14  0:00)
A11dRCC = A11e2xJ
1 79901U 24999ZYS 24319.49919926  .00000000  00000-0  00000-0 0 25513
2 79901 020.6128 063.7769 6301625 205.6335 353.9578 00.84500625    02

# Worst residual: 121.75 km
# MJD 60629.000000 (2024 Nov 15  0:00)
A11dRCC = A11e2xJ
1 79901U 24999ZYS 24320.49919926  .00000000  00000-0  00000-0 0 25515
2 79901 020.7993 063.9511 6345023 206.0316 296.1000 00.84397085    06

# Worst residual: 96.04 km
# MJD 60630.000000 (2024 Nov 16  0:00)
A11dRCC = A11e2xJ
1 79901U 24999ZYS 24321.49919926  .00000000  00000-0  00000-0 0 25516
2 79901 020.9520 064.0716 6370576 206.3619 238.5455 00.84138989    03

# Worst residual: 70.80 km
# MJD 60631.000000 (2024 Nov 17  0:00)
A11dRCC = A11e2xJ
1 79901U 24999ZYS 24322.49919926  .00000000  00000-0  00000-0 0 25517
2 79901 021.1187 064.2532 6394763 206.8015 180.9431 00.83985477    07

# Worst residual: 67.33 km
# MJD 60632.000000 (2024 Nov 18  0:00)
A11dRCC = A11e2xJ
1 79901U 24999ZYS 24323.49919926  .00000000  00000-0  00000-0 0 25518
2 79901 021.2648 064.4674 6434549 207.2162 123.4189 00.84036772    02

# Worst residual: 126.31 km
# MJD 60633.000000 (2024 Nov 19  0:00)
A11dRCC = A11e2xJ
1 79901U 24999ZYS 24324.49919926  .00000000  00000-0  00000-0 0 25519
2 79901 021.4110 064.7110 6473789 207.4933 065.9610 00.84260723    07

# Worst residual: 110.47 km
# MJD 60634.000000 (2024 Nov 20  0:00)
A11dRCC = A11e2xJ
1 79901U 24999ZYS 24325.49919926  .00000000  00000-0  00000-0 0 25510
2 79901 021.5957 064.9720 6502821 207.8251 008.1871 00.84489997    07

# Worst residual: 124.61 km
# MJD 60635.000000 (2024 Nov 21  0:00)
A11dRCC = A11e2xJ
1 79901U 24999ZYS 24326.49919926  .00000000  00000-0  00000-0 0 25511
2 79901 021.7884 065.1783 6538985 208.2037 310.2680 00.84420699    06

# Worst residual: 115.38 km
# MJD 60636.000000 (2024 Nov 22  0:00)
A11dRCC = A11e2xJ
1 79901U 24999ZYS 24327.49919926  .00000000  00000-0  00000-0 0 25512
2 79901 021.9370 065.3130 6566277 208.5227 252.6756 00.84185323    00

# Worst residual: 63.83 km
# MJD 60637.000000 (2024 Nov 23  0:00)
A11dRCC = A11e2xJ
1 79901U 24999ZYS 24328.49919926  .00000000  00000-0  00000-0 0 25513
2 79901 022.0972 065.4777 6581517 208.9264 195.0749 00.84015357    08

# Worst residual: 47.48 km
# MJD 60638.000000 (2024 Nov 24  0:00)
A11dRCC = A11e2xJ
1 79901U 24999ZYS 24329.49919926  .00000000  00000-0  00000-0 0 25514
2 79901 022.2447 065.6895 6612958 209.3427 137.5270 00.84011463    04

# Worst residual: 132.74 km
# MJD 60639.000000 (2024 Nov 25  0:00)
A11dRCC = A11e2xJ
1 79901U 24999ZYS 24330.49919926  .00000000  00000-0  00000-0 0 25516
2 79901 022.3788 065.9140 6651385 209.6330 080.0948 00.84205659    08

# Worst residual: 127.42 km
# MJD 60640.000000 (2024 Nov 26  0:00)
A11dRCC = A11e2xJ
1 79901U 24999ZYS 24331.49919926  .00000000  00000-0  00000-0 0 25517
2 79901 022.5550 066.1807 6678246 209.9182 022.4076 00.84460163    08

# Worst residual: 126.43 km
# MJD 60641.000000 (2024 Nov 27  0:00)
A11dRCC = A11e2xJ
1 79901U 24999ZYS 24332.49919926  .00000000  00000-0  00000-0 0 25518
2 79901 022.7467 066.4146 6710256 210.2960 324.4320 00.84455472    07

# Worst residual: 119.46 km
# MJD 60642.000000 (2024 Nov 28  0:00)
A11dRCC = A11e2xJ
1 79901U 24999ZYS 24333.49919926  .00000000  00000-0  00000-0 0 25519
2 79901 022.9057 066.5633 6737429 210.6330 266.7204 00.84235218    05

# Worst residual: 58.46 km
# MJD 60643.000000 (2024 Nov 29  0:00)
A11dRCC = A11e2xJ
1 79901U 24999ZYS 24334.49919926  .00000000  00000-0  00000-0 0 25510
2 79901 023.0562 066.7328 6748114 210.9974 209.1213 00.84022595    04

# Worst residual: 45.26 km
# MJD 60644.000000 (2024 Nov 30  0:00)
A11dRCC = A11e2xJ
1 79901U 24999ZYS 24335.49919926  .00000000  00000-0  00000-0 0 25511
2 79901 023.2020 066.9351 6771599 211.4253 151.5365 00.83985991    07

# Worst residual: 122.00 km
# MJD 60645.000000 (2024 Dec  1  0:00)
A11dRCC = A11e2xJ
1 79901U 24999ZYS 24336.49919926  .00000000  00000-0  00000-0 0 25512
2 79901 023.3415 067.1618 6808325 211.7389 094.0503 00.84153672    05

# Worst residual: 131.62 km
# MJD 60646.000000 (2024 Dec  2  0:00)
A11dRCC = A11e2xJ
1 79901U 24999ZYS 24337.49919926  .00000000  00000-0  00000-0 0 25513
2 79901 023.4849 067.3961 6832359 212.0351 036.4108 00.84415709    00

# Worst residual: 122.16 km
# MJD 60647.000000 (2024 Dec  3  0:00)
A11dRCC = A11e2xJ
1 79901U 24999ZYS 24338.49919926  .00000000  00000-0  00000-0 0 25514
2 79901 023.6669 067.6392 6857417 212.4056 338.4227 00.84477206    08

# Worst residual: 147.90 km
# MJD 60648.000000 (2024 Dec  4  0:00)
A11dRCC = A11e2xJ
1 79901U 24999ZYS 24339.49919926  .00000000  00000-0  00000-0 0 25515
2 79901 023.8354 067.8101 6883958 212.7361 280.6488 00.84265899    02

# Worst residual: 61.45 km
# MJD 60649.000000 (2024 Dec  5  0:00)
A11dRCC = A11e2xJ
1 79901U 24999ZYS 24340.49919926  .00000000  00000-0  00000-0 0 25517
2 79901 023.9694 067.9617 6890337 213.0921 223.0169 00.84036111    08

# Worst residual: 50.70 km
# MJD 60650.000000 (2024 Dec  6  0:00)
A11dRCC = A11e2xJ
1 79901U 24999ZYS 24341.49919926  .00000000  00000-0  00000-0 0 25518
2 79901 024.1064 068.1470 6909044 213.5274 165.4098 00.83981306    08

# Worst residual: 107.72 km
# MJD 60651.000000 (2024 Dec  7  0:00)
A11dRCC = A11e2xJ
1 79901U 24999ZYS 24342.49919926  .00000000  00000-0  00000-0 0 25519
2 79901 024.2331 068.3531 6941513 213.8938 107.8591 00.84111377    05

# Worst residual: 120.92 km
# MJD 60652.000000 (2024 Dec  8  0:00)
A11dRCC = A11e2xJ
1 79901U 24999ZYS 24343.49919926  .00000000  00000-0  00000-0 0 25510
2 79901 024.3729 068.5962 6964416 214.1636 050.2612 00.84367880    00

# Worst residual: 108.58 km
# MJD 60653.000000 (2024 Dec  9  0:00)
A11dRCC = A11e2xJ
1 79901U 24999ZYS 24344.49919926  .00000000  00000-0  00000-0 0 25511
2 79901 024.5378 068.8434 6983094 214.5371 352.2693 00.84497246    06

# Worst residual: 139.46 km
# MJD 60654.000000 (2024 Dec 10  0:00)
A11dRCC = A11e2xJ
1 79901U 24999ZYS 24345.49919926  .00000000  00000-0  00000-0 0 25512
2 79901 024.6999 069.0053 7007167 214.9181 294.3666 00.84318752    08

# Worst residual: 75.62 km
# MJD 60655.000000 (2024 Dec 11  0:00)
A11dRCC = A11e2xJ
1 79901U 24999ZYS 24346.49919926  .00000000  00000-0  00000-0 0 25513
2 79901 024.8309 069.1555 7011930 215.2401 236.7455 00.84073512    03

# Worst residual: 53.86 km
# MJD 60656.000000 (2024 Dec 12  0:00)
A11dRCC = A11e2xJ
1 79901U 24999ZYS 24347.49919926  .00000000  00000-0  00000-0 0 25514
2 79901 024.9593 069.3225 7024978 215.6775 179.1074 00.83987338    05

# Worst residual: 99.10 km
# MJD 60657.000000 (2024 Dec 13  0:00)
A11dRCC = A11e2xJ
1 79901U 24999ZYS 24348.49919926  .00000000  00000-0  00000-0 0 25515
2 79901 025.0818 069.5095 7051030 216.0774 121.5315 00.84074495    08

# Worst residual: 113.88 km
# MJD 60658.000000 (2024 Dec 14  0:00)
A11dRCC = A11e2xJ
1 79901U 24999ZYS 24349.49919926  .00000000  00000-0  00000-0 0 25516
2 79901 025.2021 069.7195 7074782 216.3793 063.9543 00.84313626    06

# Worst residual: 85.86 km
# MJD 60659.000000 (2024 Dec 15  0:00)
A11dRCC = A11e2xJ
1 79901U 24999ZYS 24350.49919926  .00000000  00000-0  00000-0 0 25518
2 79901 025.3629 069.9700 7090702 216.7239 006.0045 00.84499896    03

# Worst residual: 142.15 km
# MJD 60660.000000 (2024 Dec 16  0:00)
A11dRCC = A11e2xJ
1 79901U 24999ZYS 24351.49919926  .00000000  00000-0  00000-0 0 25519
2 79901 025.5086 070.1569 7112136 217.1184 307.9986 00.84347388    04

# Worst residual: 81.81 km
# MJD 60661.000000 (2024 Dec 17  0:00)
A11dRCC = A11e2xJ
1 79901U 24999ZYS 24352.49919926  .00000000  00000-0  00000-0 0 25510
2 79901 025.6351 070.2928 7119348 217.4661 250.3058 00.84110902    06

# Worst residual: 56.62 km
# MJD 60662.000000 (2024 Dec 18  0:00)
A11dRCC = A11e2xJ
1 79901U 24999ZYS 24353.49919926  .00000000  00000-0  00000-0 0 25667
2 79901 025.7071 070.3711 7126115 217.8002 193.3889 00.84006435    03

# Worst residual: 77.54 km
# MJD 60663.000000 (2024 Dec 19  0:00)
A11dRCC = A11e2xJ
1 79901U 24999ZYS 24354.49919926  .00000000  00000-0  00000-0 0 25668
2 79901 025.8074 070.5201 7145193 218.2402 135.8471 00.84065825    05

# Worst residual: 119.26 km
# MJD 60664.000000 (2024 Dec 20  0:00)
A11dRCC = A11e2xJ
1 79901U 24999ZYS 24355.49919926  .00000000  00000-0  00000-0 0 25669
2 79901 025.8970 070.6766 7165971 218.5730 078.3708 00.84273115    07

# Worst residual: 85.66 km
# MJD 60665.000000 (2024 Dec 21  0:00)
A11dRCC = A11e2xJ
1 79901U 24999ZYS 24356.49919926  .00000000  00000-0  00000-0 0 25660
2 79901 026.0128 070.8615 7177417 218.9241 020.6146 00.84475766    01

# Worst residual: 140.68 km
# MJD 60666.000000 (2024 Dec 22  0:00)
A11dRCC = A11e2xJ
1 79901U 24999ZYS 24357.49919926  .00000000  00000-0  00000-0 0 25661
2 79901 026.1348 071.0272 7194123 219.3230 322.6894 00.84407037    05

# Worst residual: 132.36 km
# MJD 60667.000000 (2024 Dec 23  0:00)
A11dRCC = A11e2xJ
1 79901U 24999ZYS 24358.49919926  .00000000  00000-0  00000-0 0 25662
2 79901 026.2304 071.1258 7204985 219.6931 265.0214 00.84183693    07

# Worst residual: 51.51 km
# MJD 60668.000000 (2024 Dec 24  0:00)
A11dRCC = A11e2xJ
1 79901U 24999ZYS 24359.49919926  .00000000  00000-0  00000-0 0 25663
2 79901 026.3275 071.2525 7204133 220.1051 207.4453 00.84020839    05

# Worst residual: 46.86 km
# MJD 60669.000000 (2024 Dec 25  0:00)
A11dRCC = A11e2xJ
1 79901U 24999ZYS 24360.49919926  .00000000  00000-0  00000-0 0 25665
2 79901 026.4120 071.3810 7215888 220.5715 149.8864 00.84024914    06

# Worst residual: 115.23 km
# MJD 60670.000000 (2024 Dec 26  0:00)
A11dRCC = A11e2xJ
1 79901U 24999ZYS 24361.49919926  .00000000  00000-0  00000-0 0 25666
2 79901 026.4826 071.5029 7239192 220.9465 092.4170 00.84224782    01

# Worst residual: 99.33 km
# MJD 60671.000000 (2024 Dec 27  0:00)
A11dRCC = A11e2xJ
1 79901U 24999ZYS 24362.49919926  .00000000  00000-0  00000-0 0 25667
2 79901 026.5751 071.6660 7248920 221.3003 034.7159 00.84463141    03
